{
  "type": "FeatureCollection",
  "features": [
    {
      "type": "Feature",
      "properties": {
        "norad_id": 66906,
        "name": "1998-067XS",
        "group": "last-30-days",
        "lat": -8.239563921496291,
        "lon": 142.60275269256542,
        "alt_km": 419.42240167976433,
        "timestamp": "2025-12-11T08:58:25.856939+00:00",
        "meta_object_name": "1998-067XS",
        "meta_object_id": "1998-067XS",
        "meta_epoch": "2025-12-11T04:22:42.252672",
        "meta_mean_motion": 15.50439588,
        "meta_eccentricity": 0.0003747,
        "meta_inclination": 51.6302,
        "meta_ra_of_asc_node": 150.1407,
        "meta_arg_of_pericenter": 195.2111,
        "meta_mean_anomaly": 164.8766,
        "meta_ephemeris_type": 0,
        "meta_classification_type": "U",
        "meta_norad_cat_id": 66906,
        "meta_element_set_no": 999,
        "meta_rev_at_epoch": 137,
        "meta_bstar": 0.00067409,
        "meta_mean_motion_dot": 0.00038814,
        "meta_mean_motion_ddot": 0,
        "tle_line1": "1 66906U 98067XS  25345.18243348  .00038814  00000+0  67409-3 0  9991",
        "tle_line2": "2 66906  51.6302 150.1407 0003747 195.2111 164.8766 15.50439588  1372"
      },
      "geometry": {
        "type": "Point",
        "coordinates": [
          142.60275269256542,
          -8.239563921496291
        ]
      }
    },
    {
      "type": "Feature",
      "properties": {
        "norad_id": 66907,
        "name": "1998-067XT",
        "group": "last-30-days",
        "lat": 0.4597205747631241,
        "lon": 149.52914579500336,
        "alt_km": 416.6923079079843,
        "timestamp": "2025-12-11T08:58:25.856949+00:00",
        "meta_object_name": "1998-067XT",
        "meta_object_id": "1998-067XT",
        "meta_epoch": "2025-12-09T12:07:37.114752",
        "meta_mean_motion": 15.50864429,
        "meta_eccentricity": 0.00048036,
        "meta_inclination": 51.6307,
        "meta_ra_of_asc_node": 158.4423,
        "meta_arg_of_pericenter": 208.5081,
        "meta_mean_anomaly": 151.5646,
        "meta_ephemeris_type": 0,
        "meta_classification_type": "U",
        "meta_norad_cat_id": 66907,
        "meta_element_set_no": 999,
        "meta_rev_at_epoch": 111,
        "meta_bstar": 0.0012921241,
        "meta_mean_motion_dot": 0.00076342,
        "meta_mean_motion_ddot": 0,
        "tle_line1": "1 66907U 98067XT  25343.50529068  .00076342  00000+0  12921-2 0  9998",
        "tle_line2": "2 66907  51.6307 158.4423 0004803 208.5081 151.5646 15.50864429  1113"
      },
      "geometry": {
        "type": "Point",
        "coordinates": [
          149.52914579500336,
          0.4597205747631241
        ]
      }
    },
    {
      "type": "Feature",
      "properties": {
        "norad_id": 66908,
        "name": "1998-067XU",
        "group": "last-30-days",
        "lat": 1.6986196067695105,
        "lon": 150.509842167816,
        "alt_km": 416.3180242825274,
        "timestamp": "2025-12-11T08:58:25.856960+00:00",
        "meta_object_name": "1998-067XU",
        "meta_object_id": "1998-067XU",
        "meta_epoch": "2025-12-10T15:57:23.331168",
        "meta_mean_motion": 15.51115637,
        "meta_eccentricity": 0.00048129,
        "meta_inclination": 51.6304,
        "meta_ra_of_asc_node": 152.6848,
        "meta_arg_of_pericenter": 213.5482,
        "meta_mean_anomaly": 146.5203,
        "meta_ephemeris_type": 0,
        "meta_classification_type": "U",
        "meta_norad_cat_id": 66908,
        "meta_element_set_no": 999,
        "meta_rev_at_epoch": 129,
        "meta_bstar": 0.0014713865,
        "meta_mean_motion_dot": 0.00087912,
        "meta_mean_motion_ddot": 0,
        "tle_line1": "1 66908U 98067XU  25344.66485337  .00087912  00000+0  14714-2 0  9994",
        "tle_line2": "2 66908  51.6304 152.6848 0004812 213.5482 146.5203 15.51115637  1292"
      },
      "geometry": {
        "type": "Point",
        "coordinates": [
          150.509842167816,
          1.6986196067695105
        ]
      }
    },
    {
      "type": "Feature",
      "properties": {
        "norad_id": 66909,
        "name": "SILVERSAT",
        "group": "last-30-days",
        "lat": 2.9155909425541413,
        "lon": 151.4732122394171,
        "alt_km": 415.7456734490461,
        "timestamp": "2025-12-11T08:58:25.856970+00:00",
        "meta_object_name": "SILVERSAT",
        "meta_object_id": "1998-067XV",
        "meta_epoch": "2025-12-10T17:29:49.371360",
        "meta_mean_motion": 15.51224506,
        "meta_eccentricity": 0.00046681,
        "meta_inclination": 51.6307,
        "meta_ra_of_asc_node": 152.3636,
        "meta_arg_of_pericenter": 216.2554,
        "meta_mean_anomaly": 143.8119,
        "meta_ephemeris_type": 0,
        "meta_classification_type": "U",
        "meta_norad_cat_id": 66909,
        "meta_element_set_no": 999,
        "meta_rev_at_epoch": 130,
        "meta_bstar": 0.0015305983,
        "meta_mean_motion_dot": 0.00091869,
        "meta_mean_motion_ddot": 0,
        "tle_line1": "1 66909U 98067XV  25344.72904365  .00091869  00000+0  15306-2 0  9993",
        "tle_line2": "2 66909  51.6307 152.3636 0004668 216.2554 143.8119 15.51224506  1301"
      },
      "geometry": {
        "type": "Point",
        "coordinates": [
          151.4732122394171,
          2.9155909425541413
        ]
      }
    },
    {
      "type": "Feature",
      "properties": {
        "norad_id": 66910,
        "name": "1998-067XW",
        "group": "last-30-days",
        "lat": 8.891215986220743,
        "lon": 156.26479396630918,
        "alt_km": 415.55155050646135,
        "timestamp": "2025-12-11T08:58:25.856984+00:00",
        "meta_object_name": "1998-067XW",
        "meta_object_id": "1998-067XW",
        "meta_epoch": "2025-12-10T11:16:54.563808",
        "meta_mean_motion": 15.51350337,
        "meta_eccentricity": 0.00055419,
        "meta_inclination": 51.6299,
        "meta_ra_of_asc_node": 153.6351,
        "meta_arg_of_pericenter": 197.1967,
        "meta_mean_anomaly": 162.8836,
        "meta_ephemeris_type": 0,
        "meta_classification_type": "U",
        "meta_norad_cat_id": 66910,
        "meta_element_set_no": 999,
        "meta_rev_at_epoch": 126,
        "meta_bstar": 0.0013818348,
        "meta_mean_motion_dot": 0.00083191,
        "meta_mean_motion_ddot": 0,
        "tle_line1": "1 66910U 98067XW  25344.47007597  .00083191  00000+0  13818-2 0  9993",
        "tle_line2": "2 66910  51.6299 153.6351 0005541 197.1967 162.8836 15.51350337  1261"
      },
      "geometry": {
        "type": "Point",
        "coordinates": [
          156.26479396630918,
          8.891215986220743
        ]
      }
    },
    {
      "type": "Feature",
      "properties": {
        "norad_id": 66911,
        "name": "1998-067XX",
        "group": "last-30-days",
        "lat": 11.104352166377765,
        "lon": 158.08620742963933,
        "alt_km": 414.42825582283876,
        "timestamp": "2025-12-11T08:58:25.856995+00:00",
        "meta_object_name": "1998-067XX",
        "meta_object_id": "1998-067XX",
        "meta_epoch": "2025-12-11T04:16:32.481408",
        "meta_mean_motion": 15.5166419,
        "meta_eccentricity": 0.0005192,
        "meta_inclination": 51.6299,
        "meta_ra_of_asc_node": 150.1129,
        "meta_arg_of_pericenter": 201.0739,
        "meta_mean_anomaly": 159.0037,
        "meta_ephemeris_type": 0,
        "meta_classification_type": "U",
        "meta_norad_cat_id": 66911,
        "meta_element_set_no": 999,
        "meta_rev_at_epoch": 136,
        "meta_bstar": 0.0016096,
        "meta_mean_motion_dot": 0.00098261,
        "meta_mean_motion_ddot": 0,
        "tle_line1": "1 66911U 98067XX  25345.17815372  .00098261  00000+0  16096-2 0  9995",
        "tle_line2": "2 66911  51.6299 150.1129 0005192 201.0739 159.0037 15.51664190  1368"
      },
      "geometry": {
        "type": "Point",
        "coordinates": [
          158.08620742963933,
          11.104352166377765
        ]
      }
    },
    {
      "type": "Feature",
      "properties": {
        "norad_id": 66912,
        "name": "1998-067XY",
        "group": "last-30-days",
        "lat": -2.549237714301188,
        "lon": 147.15406497707133,
        "alt_km": 417.62012113558194,
        "timestamp": "2025-12-11T08:58:25.857008+00:00",
        "meta_object_name": "1998-067XY",
        "meta_object_id": "1998-067XY",
        "meta_epoch": "2025-12-10T17:31:22.847520",
        "meta_mean_motion": 15.50838333,
        "meta_eccentricity": 0.00047912,
        "meta_inclination": 51.6309,
        "meta_ra_of_asc_node": 152.3712,
        "meta_arg_of_pericenter": 213.0974,
        "meta_mean_anomaly": 146.9716,
        "meta_ephemeris_type": 0,
        "meta_classification_type": "U",
        "meta_norad_cat_id": 66912,
        "meta_element_set_no": 999,
        "meta_rev_at_epoch": 129,
        "meta_bstar": 0.0011490073,
        "meta_mean_motion_dot": 0.00067697,
        "meta_mean_motion_ddot": 0,
        "tle_line1": "1 66912U 98067XY  25344.73012555  .00067697  00000+0  11490-2 0  9991",
        "tle_line2": "2 66912  51.6309 152.3712 0004791 213.0974 146.9716 15.50838333  1293"
      },
      "geometry": {
        "type": "Point",
        "coordinates": [
          147.15406497707133,
          -2.549237714301188
        ]
      }
    }
  ]
}